0 COSMOS 860
1 09486U 76103A   13283.46731831 -.00000100  00000-0 -86443-5 0  8806
2 09486 064.7029 049.5112 0064156 340.7940 052.6121 13.81194241243334
0 COSMOS 860
1 09486U 76103A   13283.67779703 -.00000009  00000-0  00000+0 0  8805
2 09486 064.7015 048.9687 0062948 340.5774 019.3355 13.81193866243363
0 COSMOS 860
1 09486U 76103A   13286.51219153 -.00000092  00000-0 -19562-5 0  8823
2 09486 064.7033 041.5756 0064427 340.0704 072.5342 13.81194116243750
0 COSMOS 860
1 09486U 76103A   13287.53040428 -.00000080  00000-0  96495-5 0  8830
2 09486 064.7034 038.9219 0064524 339.8184 095.3699 13.81193921243897
0 COSMOS 860
1 09486U 76103A   13288.70304666 -.00000066  00000-0  22795-4 0  8843
2 09486 064.7034 035.8658 0064630 339.5414 166.0586 13.81193906244054
0 COSMOS 860
1 09486U 76103A   13290.41877008 -.00000052  00000-0  35133-4 0  8855
2 09486 064.7033 031.3944 0064782 339.1489 057.0770 13.81193971244290
0 COSMOS 860
1 09486U 76103A   13291.51352793 -.00000054  00000-0  33659-4 0  8860
2 09486 064.7032 028.5414 0064895 338.8640 100.5290 13.81194094244444
0 COSMOS 860
1 09486U 76103A   13292.53690578 -.00000045  00000-0  41653-4 0  8873
2 09486 064.7031 025.8744 0064975 338.6418 149.0158 13.81194260244580
0 COSMOS 860
1 09486U 76103A   13293.77123634 -.00000054  00000-0  33242-4 0  8880
2 09486 064.7031 022.6575 0065073 338.3671 166.4178 13.81194395244758
0 COSMOS 860
1 09486U 76103A   13294.78306076 -.00000065  00000-0  23314-4 0  8897
2 09486 064.7031 020.0206 0065164 338.1190 157.4864 13.81194628244892
0 COSMOS 860
1 09486U 76103A   13295.79585679 -.00000070  00000-0  19030-4 0  8905
2 09486 064.7031 017.3811 0065264 337.8813 153.3769 13.81194640245032
